FENGYUN 3D              
1 43010U 17072A   26161.24082684  .00000198  00000+0  11555-3 0  9992
2 43010  99.0124 135.5377 0002662  73.1397 287.0070 14.19738836444008
NOAA 20 (JPSS-1)        
1 43013U 17073A   26161.23463922  .00000035  00000+0  37461-4 0  9998
2 43013  98.7772 100.7591 0000401  48.2084 311.9127 14.19510454443488
GOES 17                 
1 43226U 18022A   26161.25090159 -.00000165  00000+0  00000+0 0  9998
2 43226   0.9186  85.8386 0000532  17.6418 155.9718  1.00271238 30359
SENTINEL-3B             
1 43437U 18039A   26161.17671133  .00000084  00000+0  52566-4 0  9996
2 43437  98.6248 228.8094 0000829  79.5130 280.6144 14.26739770423120
FENGYUN 2H              
1 43491U 18050A   26160.99924470 -.00000114  00000+0  00000+0 0  9999
2 43491   3.0116  79.1601 0001660 127.3564 131.0253  1.00270945 29362
METOP-C                 
1 43689U 18087A   26161.24046487  .00000070  00000+0  52022-4 0  9996
2 43689  98.6646 220.9708 0001509 137.3356 222.7939 14.21510201393840
GEO-KOMPSAT-2A          
1 43823U 18100A   26160.79502436 -.00000326  00000+0  00000+0 0  9991
2 43823   0.0520 130.4715 0002233 314.0489 228.1123  1.00269926 27552
METEOR-M2 2             
1 44387U 19038A   26161.29029829  .00000532  00000+0  25004-3 0  9997
2 44387  98.9146 148.4740 0002273  58.8120 301.3281 14.24365832360310
ARKTIKA-M 1             
1 47719U 21016A   26160.51571443 -.00000149  00000+0  00000+0 0  9996
2 47719  63.2417  58.7595 7285674 269.8905  14.6803  2.00625436 38630
FENGYUN 3E              
1 49008U 21062A   26161.29593586  .00000051  00000+0  44956-4 0  9992
2 49008  98.7497 164.7809 0002782  97.1257 263.0235 14.19903390255600
GOES 18                 
1 51850U 22021A   26161.02767789  .00000114  00000+0  00000+0 0  9992
2 51850   0.0448 130.4208 0000472  17.5522 343.3826  1.00271105  6529
NOAA 21 (JPSS-2)        
1 54234U 22150A   26161.19731039  .00000030  00000+0  35072-4 0  9990
2 54234  98.7060 100.1039 0001255 170.6261 189.4938 14.19564244185556
METEOSAT-12 (MTG-I1)    
1 54743U 22170C   26161.26852631  .00000009  00000+0  00000+0 0  9991
2 54743   0.7302  21.7319 0003308  71.7629 261.3806  1.00271666 12903
TIANMU-1 03             
1 55973U 23039A   26161.32392389  .00014282  00000+0  28367-3 0  9996
2 55973  97.5234 335.0261 0004181 116.2571 243.9109 15.47090745179779
TIANMU-1 04             
1 55974U 23039B   26161.31603786  .00014861  00000+0  28910-3 0  9999
2 55974  97.5171 334.1711 0004762 113.2263 246.9489 15.47682059179780
TIANMU-1 05             
1 55975U 23039C   26161.30436172  .00014714  00000+0  29294-3 0  9995
2 55975  97.5213 334.6234 0003846 130.6351 229.5233 15.47016401179759
TIANMU-1 06             
1 55976U 23039D   26161.31899572  .00014686  00000+0  28666-3 0  9994
2 55976  97.5224 335.2672 0004111 127.6613 232.5011 15.47588602179786
FENGYUN 3G              
1 56232U 23055A   26160.12520916  .00022526  00000+0  34170-3 0  9998
2 56232  49.9935  27.5514 0005565 167.7824 192.3280 15.54457419178757
METEOR-M2 3             
1 57166U 23091A   26161.28302703 -.00000010  00000+0  14240-4 0  9997
2 57166  98.6091 216.4023 0003969 173.5385 186.5846 14.24046188153530
TIANMU-1 07             
1 57399U 23101A   26161.29732193  .00005832  00000+0  20507-3 0  9996
2 57399  97.2600 212.1240 0003736 135.6408 224.5133 15.29727387160599
TIANMU-1 08             
1 57400U 23101B   26161.26398295  .00005584  00000+0  19641-3 0  9998
2 57400  97.2588 211.8631 0005266 132.0830 228.0860 15.29731916160585
TIANMU-1 09             
1 57401U 23101C   26161.24753196  .00005747  00000+0  20188-3 0  9991
2 57401  97.2546 211.2664 0004121 142.7913 217.3614 15.29760399160584
TIANMU-1 10             
1 57402U 23101D   26161.28045450  .00005928  00000+0  20831-3 0  9999
2 57402  97.2625 212.3420 0005725 144.4963 215.6660 15.29731892160588
FENGYUN 3F              
1 57490U 23111A   26161.28001336  .00000025  00000+0  32337-4 0  9990
2 57490  98.6841 231.4172 0001589  98.2307 261.9050 14.19937904147883
ARKTIKA-M 2             
1 58584U 23198A   26154.30372208  .00000150  00000+0  00000+0 0  9990
2 58584  63.2209 155.9142 6898549 267.4684  18.7857  2.00591941 18047
TIANMU-1 11             
1 58645U 23205A   26161.30374206  .00004958  00000+0  19007-3 0  9996
2 58645  97.3452 182.9688 0009759  39.5477 320.6472 15.26924034136478
TIANMU-1 12             
1 58646U 23205B   26161.33947559  .00005371  00000+0  20599-3 0  9995
2 58646  97.3441 182.7610 0007587  27.0604 333.1029 15.26886895136469
TIANMU-1 13             
1 58647U 23205C   26161.30546148  .00005080  00000+0  19590-3 0  9998
2 58647  97.3468 182.9991 0006741   7.4577 352.6761 15.26740908136457
TIANMU-1 14             
1 58648U 23205D   26161.29086898  .00005095  00000+0  19614-3 0  9991
2 58648  97.3404 182.1720 0007728  11.0532 349.0875 15.26785286136452
TIANMU-1 19             
1 58660U 23208A   26161.29596502  .00007323  00000+0  24349-3 0  9993
2 58660  97.4491 277.5616 0004383 357.5308   2.5911 15.31469988136275
