OBJECT_NAME,OBJECT_ID,EPOCH,MEAN_MOTION,ECCENTRICITY,INCLINATION,RA_OF_ASC_NODE,ARG_OF_PERICENTER,MEAN_ANOMALY,EPHEMERIS_TYPE,CLASSIFICATION_TYPE,NORAD_CAT_ID,ELEMENT_SET_NO,REV_AT_EPOCH,BSTAR,MEAN_MOTION_DOT,MEAN_MOTION_DDOT
FENGYUN 3D,2017-072A,2026-06-10T05:46:47.438976,14.19738836,.00026623,99.0124,135.5377,73.1397,287.0070,0,U,43010,999,44400,.11554664E-3,.198E-5,0
NOAA 20 (JPSS-1),2017-073A,2026-06-10T05:37:52.828608,14.19510454,.00004017,98.7772,100.7591,48.2084,311.9127,0,U,43013,999,44348,.37460926E-4,.35E-6,0
GOES 17,2018-022A,2026-06-10T06:01:17.897376,1.00271238,.00005324,0.9186,85.8386,17.6418,155.9718,0,U,43226,999,3035,0,-.165E-5,0
SENTINEL-3B,2018-039A,2026-06-10T04:14:27.858912,14.26739770,.00008297,98.6248,228.8094,79.5130,280.6144,0,U,43437,999,42312,.52565784E-4,.84E-6,0
FENGYUN 2H,2018-050A,2026-06-09T23:58:54.742080,1.00270945,.00016607,3.0116,79.1601,127.3564,131.0253,0,U,43491,999,2936,0,-.114E-5,0
METOP-C,2018-087A,2026-06-10T05:46:16.164768,14.21510201,.00015094,98.6646,220.9708,137.3356,222.7939,0,U,43689,999,39384,.52021948E-4,.7E-6,0
GEO-KOMPSAT-2A,2018-100A,2026-06-09T19:04:50.104704,1.00269926,.0002233,0.0520,130.4715,314.0489,228.1123,0,U,43823,999,2755,0,-.326E-5,0
METEOR-M2 2,2019-038A,2026-06-10T06:58:01.772256,14.24365832,.00022738,98.9146,148.4740,58.8120,301.3281,0,U,44387,999,36031,.2500366E-3,.532E-5,0
ARKTIKA-M 1,2021-016A,2026-06-09T12:22:37.726752,2.00625436,.7285674,63.2417,58.7595,269.8905,14.6803,0,U,47719,999,3863,0,-.149E-5,0
FENGYUN 3E,2021-062A,2026-06-10T07:06:08.858304,14.19903390,.00027824,98.7497,164.7809,97.1257,263.0235,0,U,49008,999,25560,.44955638E-4,.51E-6,0
GOES 18,2022-021A,2026-06-10T00:39:51.369696,1.00271105,.00004729,0.0448,130.4208,17.5522,343.3826,0,U,51850,999,652,0,.114E-5,0
NOAA 21 (JPSS-2),2022-150A,2026-06-10T04:44:07.617696,14.19564244,.00012558,98.7060,100.1039,170.6261,189.4938,0,U,54234,999,18555,.35071888E-4,.3E-6,0
METEOSAT-12 (MTG-I1),2022-170C,2026-06-10T06:26:40.673184,1.00271666,.00033084,0.7302,21.7319,71.7629,261.3806,0,U,54743,999,1290,0,.9E-7,0
TIANMU-1 03,2023-039A,2026-06-10T07:46:27.024096,15.47090745,.00041814,97.5234,335.0261,116.2571,243.9109,0,U,55973,999,17977,.28366937E-3,.14282E-3,0
TIANMU-1 04,2023-039B,2026-06-10T07:35:05.671104,15.47682059,.00047629,97.5171,334.1711,113.2263,246.9489,0,U,55974,999,17978,.28909961E-3,.14861E-3,0
TIANMU-1 05,2023-039C,2026-06-10T07:18:16.852608,15.47016401,.00038468,97.5213,334.6234,130.6351,229.5233,0,U,55975,999,17975,.29293579E-3,.14714E-3,0
TIANMU-1 06,2023-039D,2026-06-10T07:39:21.230208,15.47588602,.00041119,97.5224,335.2672,127.6613,232.5011,0,U,55976,999,17978,.28666221E-3,.14686E-3,0
FENGYUN 3G,2023-055A,2026-06-09T03:00:18.071424,15.54457419,.0005565,49.9935,27.5514,167.7824,192.3280,0,U,56232,999,17875,.34170294E-3,.22526E-3,0
METEOR-M2 3,2023-091A,2026-06-10T06:47:33.535392,14.24046188,.00039693,98.6091,216.4023,173.5385,186.5846,0,U,57166,999,15353,.14239692E-4,-.1E-6,0
TIANMU-1 07,2023-101A,2026-06-10T07:08:08.614752,15.29727387,.00037364,97.2600,212.1240,135.6408,224.5133,0,U,57399,999,16059,.20507277E-3,.5832E-4,0
TIANMU-1 08,2023-101B,2026-06-10T06:20:08.126880,15.29731916,.00052666,97.2588,211.8631,132.0830,228.0860,0,U,57400,999,16058,.19640667E-3,.5584E-4,0
TIANMU-1 09,2023-101C,2026-06-10T05:56:26.761344,15.29760399,.00041215,97.2546,211.2664,142.7913,217.3614,0,U,57401,999,16058,.20188305E-3,.5747E-4,0
TIANMU-1 10,2023-101D,2026-06-10T06:43:51.268800,15.29731892,.00057253,97.2625,212.3420,144.4963,215.6660,0,U,57402,999,16058,.20830608E-3,.5928E-4,0
FENGYUN 3F,2023-111A,2026-06-10T06:43:13.154304,14.19937904,.00015895,98.6841,231.4172,98.2307,261.9050,0,U,57490,999,14788,.32337035E-4,.25E-6,0
ARKTIKA-M 2,2023-198A,2026-06-03T07:17:21.587712,2.00591941,.68985494,63.2209,155.9142,267.4684,18.7857,0,U,58584,999,1804,0,.15E-5,0
TIANMU-1 11,2023-205A,2026-06-10T07:17:23.313984,15.26924034,.00097596,97.3452,182.9688,39.5477,320.6472,0,U,58645,999,13647,.19007475E-3,.4958E-4,0
TIANMU-1 12,2023-205B,2026-06-10T08:08:50.690976,15.26886895,.00075872,97.3441,182.7610,27.0604,333.1029,0,U,58646,999,13646,.20598627E-3,.5371E-4,0
TIANMU-1 13,2023-205C,2026-06-10T07:19:51.871872,15.26740908,.00067417,97.3468,182.9991,7.4577,352.6761,0,U,58647,999,13645,.19589856E-3,.508E-4,0
TIANMU-1 14,2023-205D,2026-06-10T06:58:51.079872,15.26785286,.00077289,97.3404,182.1720,11.0532,349.0875,0,U,58648,999,13645,.19614384E-3,.5095E-4,0
TIANMU-1 19,2023-208A,2026-06-10T07:06:11.377728,15.31469988,.00043835,97.4491,277.5616,357.5308,2.5911,0,U,58660,999,13627,.24349043E-3,.7323E-4,0
